{
  "norad_id": 57950,
  "name": "STARLINK-30701",
  "history": [
    {
      "epoch": "2026-03-28T20:10:15.032064",
      "apogee_km": 475.7931776451069,
      "perigee_km": 474.66045367365496,
      "latitude_deg": 6.013599356578617,
      "longitude_deg": 55.683368959929794,
      "semi_major_axis_km": 6853.363815659381,
      "eccentricity": 8.264e-05,
      "inclination_deg": 53.1599,
      "raan_deg": 295.3637,
      "arg_perigee_deg": 92.5632,
      "mean_anomaly_deg": 267.5464,
      "mean_motion_rev_day": 15.30196066
    }
  ]
}